OBJECT_NAME,OBJECT_ID,EPOCH,MEAN_MOTION,ECCENTRICITY,INCLINATION,RA_OF_ASC_NODE,ARG_OF_PERICENTER,MEAN_ANOMALY,EPHEMERIS_TYPE,CLASSIFICATION_TYPE,NORAD_CAT_ID,ELEMENT_SET_NO,REV_AT_EPOCH,BSTAR,MEAN_MOTION_DOT,MEAN_MOTION_DDOT
STARLINK-37683,2026-123Q,2026-06-18T06:00:02.000160,15.75186605,.000077,53.1593,236.0178,46.7387,194.4281,0,U,69367,999,332,.12198686E-3,.18057E-3,0
STARLINK-37687,2026-123R,2026-06-18T06:00:02.000160,15.80904657,.00011528,53.1583,235.9388,81.6374,198.1755,0,U,69368,999,332,-.23660016E-3,-.4721E-3,0
STARLINK-37631,2026-123S,2026-06-18T06:00:02.000160,15.80893535,.00010352,53.1582,235.9479,116.7733,158.5438,0,U,69369,999,337,-.63327701E-4,-.1319E-3,0
STARLINK-37673,2026-123T,2026-06-18T06:00:02.000160,15.80878925,.00011911,53.1580,235.9426,79.4657,198.3300,0,U,69370,999,337,-.57838288E-4,-.12102E-3,0
STARLINK-37645,2026-123U,2026-06-18T06:00:02.000160,15.80897081,.00010447,53.1576,235.9644,73.3120,193.7521,0,U,69371,999,337,-.16506823E-3,-.33189E-3,0
STARLINK-37688,2026-123V,2026-06-18T06:00:02.000160,15.80894055,.00009901,53.1573,235.9334,89.4621,192.2799,0,U,69372,999,337,-.59682828E-4,-.12472E-3,0
STARLINK-37685,2026-123W,2026-06-18T06:00:02.000160,15.80895080,.00011572,53.1576,235.9273,86.5578,198.0718,0,U,69373,999,337,-.16188797E-3,-.32563E-3,0
STARLINK-37632,2026-123X,2026-06-18T06:00:02.000160,15.80890252,.00010326,53.1576,235.9186,89.7328,199.1171,0,U,69374,999,332,-.916054E-4,-.18754E-3,0
STARLINK-37454,2026-123Y,2026-06-18T06:00:02.000160,15.80893443,.00012031,53.1575,235.9055,85.5421,209.5529,0,U,69375,999,346,-.16504971E-3,-.33181E-3,0
STARLINK-37485,2026-123Z,2026-06-18T06:00:02.000160,15.80900736,.0001211,53.1576,235.8965,82.7940,216.5016,0,U,69376,999,346,-.21132082E-3,-.42257E-3,0
STARLINK-37439,2026-123AA,2026-06-18T06:00:02.000160,15.80866278,.00010708,53.1577,235.8120,90.4557,249.3859,0,U,69377,999,332,.5766693E-4,.10693E-3,0
STARLINK-37376,2026-123AB,2026-06-18T06:00:02.000160,15.76522930,.00012404,53.1597,235.8577,91.6220,225.9881,0,U,69378,999,346,-.10965124E-1,-.1557229E-1,0
STARLINK-37383,2026-123AC,2026-06-18T06:00:02.000160,15.80880777,.00012503,53.1578,235.7691,84.8139,275.1287,0,U,69379,999,346,-.10503458E-3,-.21386E-3,0
STARLINK-37411,2026-123AD,2026-06-18T06:00:02.000160,15.80862153,.00012849,53.1576,235.8273,93.0094,239.1044,0,U,69380,999,346,.97459993E-4,.18568E-3,0
STARLINK-37427,2026-123AE,2026-06-18T06:00:02.000160,15.80950482,.00007992,53.1579,235.7787,101.3952,254.0233,0,U,69381,999,337,-.60141635E-3,-.118206E-2,0
QIANFAN-165,2026-124A,2026-06-17T21:23:35.913696,14.10714906,.00077435,88.9980,1.9604,111.2306,248.9707,0,U,69382,999,191,-.10223044E+1,-.1695E-1,0
QIANFAN-166,2026-124B,2026-06-17T21:16:10.812000,14.12796918,.00058957,88.9979,1.9595,114.6383,245.5418,0,U,69383,999,191,-.10445436E+1,-.1791255E-1,0
QIANFAN-167,2026-124C,2026-06-17T22:59:18.488832,14.11737048,.00070508,88.9978,1.9514,144.5550,215.6105,0,U,69384,999,192,-.1064649E+1,-.1790806E-1,0
QIANFAN-168,2026-124D,2026-06-18T00:33:37.055520,14.13254842,.00063709,88.9977,1.9427,148.6189,211.5378,0,U,69385,999,193,-.10004105E+1,-.1734461E-1,0
QIANFAN-169,2026-124E,2026-06-18T05:35:02.520384,14.13203830,.00060185,88.9978,1.9185,135.4311,224.7360,0,U,69386,999,196,-.10077103E+1,-.1744656E-1,0
QIANFAN-170,2026-124F,2026-06-18T00:25:39.249696,14.14490529,.00033985,88.9978,1.9420,167.4244,192.7029,0,U,69387,999,193,-.10085191E+1,-.178451E-1,0
QIANFAN-171,2026-124G,2026-06-18T00:20:23.237376,14.15768034,.00073167,88.9977,1.9414,180.9001,179.2175,0,U,69388,999,193,-.97932092E+0,-.1775304E-1,0
QIANFAN-172,2026-124H,2026-06-17T22:41:14.414208,14.15660892,.00068056,88.9978,1.9495,184.8837,175.2286,0,U,69389,999,192,-.10285057E+1,-.1875781E-1,0
QIANFAN-173,2026-124J,2026-06-17T22:36:58.938912,14.16297139,.00103966,88.9978,1.9493,128.1275,232.0852,0,U,69390,999,192,-.1000577E+1,-.1848936E-1,0
QIANFAN-174,2026-124K,2026-06-17T22:32:51.372672,14.17176253,.00031313,88.9977,1.9485,145.1330,215.0064,0,U,69391,999,192,-.10355823E+1,-.1937666E-1,0
QIANFAN-175,2026-124L,2026-06-18T00:13:10.724160,14.17716747,.00064066,88.9976,1.9405,216.8702,143.2047,0,U,69392,999,193,-.10148386E+1,-.1919666E-1,0
QIANFAN-176,2026-124M,2026-06-18T00:10:32.860992,14.17993986,.00036433,88.9973,1.9393,332.9404,27.1595,0,U,69393,999,193,-.10086533E+1,-.1917731E-1,0
QIANFAN-177,2026-124N,2026-06-17T19:03:26.883360,14.18417375,.00070173,88.9977,1.9642,187.8301,172.2780,0,U,69394,999,190,-.96558546E+0,-.1855164E-1,0
QIANFAN-178,2026-124P,2026-06-17T20:45:58.425120,14.18102910,.00049997,88.9979,1.9563,210.2961,149.7940,0,U,69395,999,191,-.98249964E+0,-.1874969E-1,0
QIANFAN-179,2026-124Q,2026-06-17T19:01:37.329888,14.18702308,.00027869,88.9977,1.9641,281.8249,78.2628,0,U,69396,999,190,-.99210066E+0,-.1911754E-1,0
