STARLINK-37683          
1 69367U 26123Q   26169.25002315  .00018057  00000+0  12199-3 0  9992
2 69367  53.1593 236.0178 0000770  46.7387 194.4281 15.75186605  3326
STARLINK-37687          
1 69368U 26123R   26169.25002315 -.00047210  00000+0 -23660-3 0  9993
2 69368  53.1583 235.9388 0001152  81.6374 198.1755 15.80904657  3324
STARLINK-37631          
1 69369U 26123S   26169.25002315 -.00013190  00000+0 -63328-4 0  9990
2 69369  53.1582 235.9479 0001035 116.7733 158.5438 15.80893535  3379
STARLINK-37673          
1 69370U 26123T   26169.25002315 -.00012102  00000+0 -57838-4 0  9993
2 69370  53.1580 235.9426 0001191  79.4657 198.3300 15.80878925  3370
STARLINK-37645          
1 69371U 26123U   26169.25002315 -.00033189  00000+0 -16507-3 0  9999
2 69371  53.1576 235.9644 0001044  73.3120 193.7521 15.80897081  3371
STARLINK-37688          
1 69372U 26123V   26169.25002315 -.00012472  00000+0 -59683-4 0  9995
2 69372  53.1573 235.9334 0000990  89.4621 192.2799 15.80894055  3377
STARLINK-37685          
1 69373U 26123W   26169.25002315 -.00032563  00000+0 -16189-3 0  9992
2 69373  53.1576 235.9273 0001157  86.5578 198.0718 15.80895080  3372
STARLINK-37632          
1 69374U 26123X   26169.25002315 -.00018754  00000+0 -91605-4 0  9996
2 69374  53.1576 235.9186 0001032  89.7328 199.1171 15.80890252  3322
STARLINK-37454          
1 69375U 26123Y   26169.25002315 -.00033181  00000+0 -16505-3 0  9993
2 69375  53.1575 235.9055 0001203  85.5421 209.5529 15.80893443  3468
STARLINK-37485          
1 69376U 26123Z   26169.25002315 -.00042257  00000+0 -21132-3 0  9990
2 69376  53.1576 235.8965 0001211  82.7940 216.5016 15.80900736  3466
STARLINK-37439          
1 69377U 26123AA  26169.25002315  .00010693  00000+0  57667-4 0  9991
2 69377  53.1577 235.8120 0001070  90.4557 249.3859 15.80866278  3320
STARLINK-37376          
1 69378U 26123AB  26169.25002315 -.01557229  00000+0 -10965-1 0  9993
2 69378  53.1597 235.8577 0001240  91.6220 225.9881 15.76522930  3467
STARLINK-37383          
1 69379U 26123AC  26169.25002315 -.00021386  00000+0 -10503-3 0  9993
2 69379  53.1578 235.7691 0001250  84.8139 275.1287 15.80880777  3465
STARLINK-37411          
1 69380U 26123AD  26169.25002315  .00018568  00000+0  97460-4 0  9999
2 69380  53.1576 235.8273 0001284  93.0094 239.1044 15.80862153  3460
STARLINK-37427          
1 69381U 26123AE  26169.25002315 -.00118206  00000+0 -60142-3 0  9998
2 69381  53.1579 235.7787 0000799 101.3952 254.0233 15.80950482  3378
QIANFAN-165             
1 69382U 26124A   26168.89138789 -.01695000  00000+0 -10223+1 0  9999
2 69382  88.9980   1.9604 0007743 111.2306 248.9707 14.10714906  1918
QIANFAN-166             
1 69383U 26124B   26168.88623625 -.01791255  00000+0 -10445+1 0  9992
2 69383  88.9979   1.9595 0005895 114.6383 245.5418 14.12796918  1911
QIANFAN-167             
1 69384U 26124C   26168.95785288 -.01790806  00000+0 -10646+1 0  9999
2 69384  88.9978   1.9514 0007050 144.5550 215.6105 14.11737048  1925
QIANFAN-168             
1 69385U 26124D   26169.02334555 -.01734461  00000+0 -10004+1 0  9999
2 69385  88.9977   1.9427 0006370 148.6189 211.5378 14.13254842  1931
QIANFAN-169             
1 69386U 26124E   26169.23266806 -.01744656  00000+0 -10077+1 0  9993
2 69386  88.9978   1.9185 0006018 135.4311 224.7360 14.13203830  1965
QIANFAN-170             
1 69387U 26124F   26169.01781539 -.01784510  00000+0 -10085+1 0  9997
2 69387  88.9978   1.9420 0003398 167.4244 192.7029 14.14490529  1933
QIANFAN-171             
1 69388U 26124G   26169.01415784 -.01775304  00000+0 -97932+0 0  9990
2 69388  88.9977   1.9414 0007316 180.9001 179.2175 14.15768034  1933
QIANFAN-172             
1 69389U 26124H   26168.94530572 -.01875781  00000+0 -10285+1 0  9992
2 69389  88.9978   1.9495 0006805 184.8837 175.2286 14.15660892  1927
QIANFAN-173             
1 69390U 26124J   26168.94234883 -.01848936  00000+0 -10006+1 0  9993
2 69390  88.9978   1.9493 0010396 128.1275 232.0852 14.16297139  1926
QIANFAN-174             
1 69391U 26124K   26168.93948348 -.01937666  00000+0 -10356+1 0  9998
2 69391  88.9977   1.9485 0003131 145.1330 215.0064 14.17176253  1927
QIANFAN-175             
1 69392U 26124L   26169.00915190 -.01919666  00000+0 -10148+1 0  9996
2 69392  88.9976   1.9405 0006406 216.8702 143.2047 14.17716747  1938
QIANFAN-176             
1 69393U 26124M   26169.00732478 -.01917731  00000+0 -10087+1 0  9996
2 69393  88.9973   1.9393 0003643 332.9404  27.1595 14.17993986  1931
QIANFAN-177             
1 69394U 26124N   26168.79406115 -.01855164  00000+0 -96559+0 0  9996
2 69394  88.9977   1.9642 0007017 187.8301 172.2780 14.18417375  1904
QIANFAN-178             
1 69395U 26124P   26168.86525955 -.01874969  00000+0 -98250+0 0  9993
2 69395  88.9979   1.9563 0004999 210.2961 149.7940 14.18102910  1912
QIANFAN-179             
1 69396U 26124Q   26168.79279317 -.01911754  00000+0 -99210+0 0  9995
2 69396  88.9977   1.9641 0002786 281.8249  78.2628 14.18702308  1908
